start=new Date('2023-02-06T00:00:00.000Z').valueOf();
sats=[{"CLASSIFICATION_TYPE":"U","MEAN_ELEMENT_THEORY":"SGP4","RCS_SIZE":"LARGE","NORAD_CAT_ID":"52608","PERIOD":"95.437","INCLINATION":"53.2155","PERIAPSIS":"538.964","MEAN_MOTION":"15.08843990","COUNTRY_CODE":"US","GP_ID":"224558044","OBJECT_NAME":"STARLINK-3979","SITE":"AFETR","LAUNCH_DATE":"2022-05-14","APOAPSIS":"540.502","EPOCH":"2023-02-05T21:46:51.967488","MEAN_MOTION_DOT":"0.00009590","TLE_LINE1":"1 52608U 22052L   23036.90754592  .00009590  00000-0  61976-3 0  9992","DECAY_DATE":null,"OBJECT_ID":"2022-052L","EPHEMERIS_TYPE":"0","REV_AT_EPOCH":"4060","ELEMENT_SET_NO":"999","ECCENTRICITY":"0.00011120","TIME_SYSTEM":"UTC","OBJECT_TYPE":"PAYLOAD","SEMIMAJOR_AXIS":"6917.868","RA_OF_ASC_NODE":"301.9369","REF_FRAME":"TEME","MEAN_ANOMALY":"278.8380","MEAN_MOTION_DDOT":"0.0000000000000","BSTAR":"0.00061976000000","ARG_OF_PERICENTER":"81.2738","TLE_LINE2":"2 52608  53.2155 301.9369 0001112  81.2738 278.8380 15.08843990 40602","CENTER_NAME":"EARTH","FILE":"3774172"},{"CLASSIFICATION_TYPE":"U","PERIOD":"95.438","NORAD_CAT_ID":"52609","RCS_SIZE":"LARGE","MEAN_ELEMENT_THEORY":"SGP4","OBJECT_NAME":"STARLINK-3997","GP_ID":"224558794","COUNTRY_CODE":"US","MEAN_MOTION":"15.08834284","PERIAPSIS":"538.912","INCLINATION":"53.2163","TLE_LINE1":"1 52609U 22052M   23036.90114527  .00001606  00000-0  11899-3 0  9990","MEAN_MOTION_DOT":"0.00001606","EPOCH":"2023-02-05T21:37:38.951328","APOAPSIS":"540.614","LAUNCH_DATE":"2022-05-14","SITE":"AFETR","TIME_SYSTEM":"UTC","ECCENTRICITY":"0.00012300","ELEMENT_SET_NO":"999","REV_AT_EPOCH":"4060","EPHEMERIS_TYPE":"0","OBJECT_ID":"2022-052M","DECAY_DATE":null,"BSTAR":"0.00011899000000","MEAN_MOTION_DDOT":"0.0000000000000","MEAN_ANOMALY":"268.4955","RA_OF_ASC_NODE":"301.9672","REF_FRAME":"TEME","SEMIMAJOR_AXIS":"6917.898","OBJECT_TYPE":"PAYLOAD","ARG_OF_PERICENTER":"91.6178","CENTER_NAME":"EARTH","FILE":"3774172","TLE_LINE2":"2 52609  53.2163 301.9672 0001230  91.6178 268.4955 15.08834284 40602"},{"SEMIMAJOR_AXIS":"6917.855","OBJECT_TYPE":"PAYLOAD","RA_OF_ASC_NODE":"310.3137","REF_FRAME":"TEME","MEAN_ANOMALY":"283.1344","BSTAR":"0.00029060000000","MEAN_MOTION_DDOT":"0.0000000000000","EPHEMERIS_TYPE":"0","OBJECT_ID":"2022-052N","DECAY_DATE":null,"REV_AT_EPOCH":"4041","ECCENTRICITY":"0.00014890","ELEMENT_SET_NO":"999","TIME_SYSTEM":"UTC","TLE_LINE2":"2 52610  53.2161 310.3137 0001489  76.9814 283.1344 15.08848145 40417","FILE":"3773728","CENTER_NAME":"EARTH","ARG_OF_PERICENTER":"76.9814","MEAN_ELEMENT_THEORY":"SGP4","RCS_SIZE":"LARGE","NORAD_CAT_ID":"52610","PERIOD":"95.437","CLASSIFICATION_TYPE":"U","SITE":"AFETR","LAUNCH_DATE":"2022-05-14","EPOCH":"2023-02-05T03:42:30.708576","APOAPSIS":"540.751","TLE_LINE1":"1 52610U 22052N   23036.15452209  .00004341  00000-0  29060-3 0  9999","MEAN_MOTION_DOT":"0.00004341","MEAN_MOTION":"15.08848145","PERIAPSIS":"538.690","INCLINATION":"53.2161","COUNTRY_CODE":"US","OBJECT_NAME":"STARLINK-3998","GP_ID":"224495901"},{"OBJECT_NAME":"STARLINK-3980","GP_ID":"224559781","COUNTRY_CODE":"US","PERIAPSIS":"538.979","MEAN_MOTION":"15.08840143","INCLINATION":"53.2140","TLE_LINE1":"1 52611U 22052P   23036.94204436  .00002056  00000-0  14724-3 0  9996","MEAN_MOTION_DOT":"0.00002056","EPOCH":"2023-02-05T22:36:32.632704","APOAPSIS":"540.511","LAUNCH_DATE":"2022-05-14","SITE":"AFETR","CLASSIFICATION_TYPE":"U","PERIOD":"95.438","NORAD_CAT_ID":"52611","RCS_SIZE":"LARGE","MEAN_ELEMENT_THEORY":"SGP4","ARG_OF_PERICENTER":"70.9126","CENTER_NAME":"EARTH","FILE":"3774172","TLE_LINE2":"2 52611  53.2140 306.7801 0001107  70.9126 289.1986 15.08840143 40530","TIME_SYSTEM":"UTC","ECCENTRICITY":"0.00011070","ELEMENT_SET_NO":"999","REV_AT_EPOCH":"4053","EPHEMERIS_TYPE":"0","DECAY_DATE":null,"OBJECT_ID":"2022-052P","BSTAR":"0.00014724000000","MEAN_MOTION_DDOT":"0.0000000000000","MEAN_ANOMALY":"289.1986","RA_OF_ASC_NODE":"306.7801","REF_FRAME":"TEME","OBJECT_TYPE":"PAYLOAD","SEMIMAJOR_AXIS":"6917.880"},{"GP_ID":"224558544","OBJECT_NAME":"STARLINK-4002","COUNTRY_CODE":"US","INCLINATION":"53.2135","PERIAPSIS":"538.932","MEAN_MOTION":"15.08838955","MEAN_MOTION_DOT":"0.00001989","TLE_LINE1":"1 52612U 22052Q   23036.90386691  .00001989  00000-0  14303-3 0  9994","APOAPSIS":"540.566","EPOCH":"2023-02-05T21:41:34.101024","LAUNCH_DATE":"2022-05-14","SITE":"AFETR","CLASSIFICATION_TYPE":"U","PERIOD":"95.438","NORAD_CAT_ID":"52612","RCS_SIZE":"LARGE","MEAN_ELEMENT_THEORY":"SGP4","ARG_OF_PERICENTER":"101.3997","FILE":"3774172","CENTER_NAME":"EARTH","TLE_LINE2":"2 52612  53.2135 301.9547 0001181 101.3997 258.7127 15.08838955 40601","TIME_SYSTEM":"UTC","ELEMENT_SET_NO":"999","ECCENTRICITY":"0.00011810","REV_AT_EPOCH":"4060","DECAY_DATE":null,"OBJECT_ID":"2022-052Q","EPHEMERIS_TYPE":"0","MEAN_MOTION_DDOT":"0.0000000000000","BSTAR":"0.00014303000000","MEAN_ANOMALY":"258.7127","REF_FRAME":"TEME","RA_OF_ASC_NODE":"301.9547","SEMIMAJOR_AXIS":"6917.884","OBJECT_TYPE":"PAYLOAD"},{"MEAN_MOTION_DDOT":"0.0000000000000","BSTAR":"0.00013188000000","MEAN_ANOMALY":"282.1561","RA_OF_ASC_NODE":"292.0252","REF_FRAME":"TEME","SEMIMAJOR_AXIS":"6917.887","OBJECT_TYPE":"PAYLOAD","TIME_SYSTEM":"UTC","ELEMENT_SET_NO":"999","ECCENTRICITY":"0.00010200","REV_AT_EPOCH":"4073","OBJECT_ID":"2022-052R","DECAY_DATE":null,"EPHEMERIS_TYPE":"0","FILE":"3774172","CENTER_NAME":"EARTH","TLE_LINE2":"2 52613  53.2166 292.0252 0001020  77.9545 282.1561 15.08837948 40736","ARG_OF_PERICENTER":"77.9545","PERIOD":"95.438","NORAD_CAT_ID":"52613","RCS_SIZE":"LARGE","MEAN_ELEMENT_THEORY":"SGP4","CLASSIFICATION_TYPE":"U","MEAN_MOTION_DOT":"0.00001812","TLE_LINE1":"1 52613U 22052R   23036.88638739  .00001812  00000-0  13188-3 0  9990","APOAPSIS":"540.457","EPOCH":"2023-02-05T21:16:23.870496","LAUNCH_DATE":"2022-05-14","SITE":"AFETR","GP_ID":"224558295","OBJECT_NAME":"STARLINK-3921","COUNTRY_CODE":"US","INCLINATION":"53.2166","MEAN_MOTION":"15.08837948","PERIAPSIS":"539.046"},{"INCLINATION":"53.2152","MEAN_MOTION":"15.08834127","PERIAPSIS":"539.135","COUNTRY_CODE":"US","GP_ID":"224559545","OBJECT_NAME":"STARLINK-3982","SITE":"AFETR","LAUNCH_DATE":"2022-05-14","APOAPSIS":"540.392","EPOCH":"2023-02-05T21:21:42.033312","MEAN_MOTION_DOT":"-0.00000054","TLE_LINE1":"1 52614U 22052S   23036.89006983 -.00000054  00000-0  14689-4 0  9998","CLASSIFICATION_TYPE":"U","MEAN_ELEMENT_THEORY":"SGP4","RCS_SIZE":"LARGE","NORAD_CAT_ID":"52614","PERIOD":"95.438","ARG_OF_PERICENTER":"86.8186","TLE_LINE2":"2 52614  53.2152 292.0142 0000909  86.8186 273.2911 15.08834127 40731","CENTER_NAME":"EARTH","FILE":"3774172","OBJECT_ID":"2022-052S","DECAY_DATE":null,"EPHEMERIS_TYPE":"0","REV_AT_EPOCH":"4073","ELEMENT_SET_NO":"999","ECCENTRICITY":"0.00009090","TIME_SYSTEM":"UTC","SEMIMAJOR_AXIS":"6917.898","OBJECT_TYPE":"PAYLOAD","REF_FRAME":"TEME","RA_OF_ASC_NODE":"292.0142","MEAN_ANOMALY":"273.2911","MEAN_MOTION_DDOT":"0.0000000000000","BSTAR":"0.00001468900000"},{"MEAN_ELEMENT_THEORY":"SGP4","RCS_SIZE":"LARGE","NORAD_CAT_ID":"52615","PERIOD":"95.438","CLASSIFICATION_TYPE":"U","SITE":"AFETR","LAUNCH_DATE":"2022-05-14","EPOCH":"2023-02-05T22:31:15.046176","APOAPSIS":"540.594","TLE_LINE1":"1 52615U 22052T   23036.93836859  .00000214  00000-0  31550-4 0  9990","MEAN_MOTION_DOT":"0.00000214","MEAN_MOTION":"15.08834122","PERIAPSIS":"538.933","INCLINATION":"53.2168","COUNTRY_CODE":"US","OBJECT_NAME":"STARLINK-4011","GP_ID":"224559282","OBJECT_TYPE":"PAYLOAD","SEMIMAJOR_AXIS":"6917.898","RA_OF_ASC_NODE":"306.7947","REF_FRAME":"TEME","MEAN_ANOMALY":"268.0929","BSTAR":"0.00003155000000","MEAN_MOTION_DDOT":"0.0000000000000","EPHEMERIS_TYPE":"0","DECAY_DATE":null,"OBJECT_ID":"2022-052T","REV_AT_EPOCH":"4052","ECCENTRICITY":"0.00012000","ELEMENT_SET_NO":"999","TIME_SYSTEM":"UTC","TLE_LINE2":"2 52615  53.2168 306.7947 0001200  92.0201 268.0929 15.08834122 40520","CENTER_NAME":"EARTH","FILE":"3774172","ARG_OF_PERICENTER":"92.0201"},{"TLE_LINE1":"1 52616U 22052U   23036.88271181 -.00002415  00000-0 -13373-3 0  9995","MEAN_MOTION_DOT":"-0.00002415","EPOCH":"2023-02-05T21:11:06.300384","APOAPSIS":"540.523","LAUNCH_DATE":"2022-05-14","SITE":"AFETR","OBJECT_NAME":"STARLINK-4015","GP_ID":"224558045","COUNTRY_CODE":"US","MEAN_MOTION":"15.08828055","PERIAPSIS":"539.041","INCLINATION":"53.2164","PERIOD":"95.438","NORAD_CAT_ID":"52616","RCS_SIZE":"LARGE","MEAN_ELEMENT_THEORY":"SGP4","CLASSIFICATION_TYPE":"U","CENTER_NAME":"EARTH","FILE":"3774172","TLE_LINE2":"2 52616  53.2164 292.0476 0001071  93.9227 266.1887 15.08828055 40738","ARG_OF_PERICENTER":"93.9227","BSTAR":"-0.00013373000000","MEAN_MOTION_DDOT":"0.0000000000000","MEAN_ANOMALY":"266.1887","REF_FRAME":"TEME","RA_OF_ASC_NODE":"292.0476","OBJECT_TYPE":"PAYLOAD","SEMIMAJOR_AXIS":"6917.917","TIME_SYSTEM":"UTC","ECCENTRICITY":"0.00010710","ELEMENT_SET_NO":"999","REV_AT_EPOCH":"4073","EPHEMERIS_TYPE":"0","OBJECT_ID":"2022-052U","DECAY_DATE":null},{"TLE_LINE2":"2 52617  53.2167 291.7787 0000801 108.0021 252.1059 15.08815203 40730","FILE":"3774172","CENTER_NAME":"EARTH","ARG_OF_PERICENTER":"108.0021","RA_OF_ASC_NODE":"291.7787","REF_FRAME":"TEME","SEMIMAJOR_AXIS":"6917.956","OBJECT_TYPE":"PAYLOAD","BSTAR":"0.00045077000000","MEAN_MOTION_DDOT":"0.0000000000000","MEAN_ANOMALY":"252.1059","REV_AT_EPOCH":"4073","EPHEMERIS_TYPE":"0","DECAY_DATE":null,"OBJECT_ID":"2022-052V","TIME_SYSTEM":"UTC","ECCENTRICITY":"0.00008010","ELEMENT_SET_NO":"999","LAUNCH_DATE":"2022-05-14","SITE":"AFETR","TLE_LINE1":"1 52617U 22052V   23036.94160750  .00006889  00000-0  45077-3 0  9995","MEAN_MOTION_DOT":"0.00006889","EPOCH":"2023-02-05T22:35:54.888000","APOAPSIS":"540.375","MEAN_MOTION":"15.08815203","PERIAPSIS":"539.267","INCLINATION":"53.2167","OBJECT_NAME":"STARLINK-3996","GP_ID":"224558795","COUNTRY_CODE":"US","RCS_SIZE":"LARGE","MEAN_ELEMENT_THEORY":"SGP4","PERIOD":"95.439","NORAD_CAT_ID":"52617","CLASSIFICATION_TYPE":"U"}];
